[{"OBJECT_NAME":"EOS-6 (OCEANSAT-3)","OBJECT_ID":"2022-158A","EPOCH":"2026-03-09T22:24:42.764256","MEAN_MOTION":14.47005704,"ECCENTRICITY":1.733e-5,"INCLINATION":98.3487,"RA_OF_ASC_NODE":168.4787,"ARG_OF_PERICENTER":158.292,"MEAN_ANOMALY":201.828,"EPHEMERIS_TYPE":0,"CLASSIFICATION_TYPE":"U","NORAD_CAT_ID":54361,"ELEMENT_SET_NO":999,"REV_AT_EPOCH":17348,"BSTAR":0.00014313559,"MEAN_MOTION_DOT":4.77e-6,"MEAN_MOTION_DDOT":0},{"OBJECT_NAME":"IRIDIUM 33 DEB","OBJECT_ID":"1997-051XH","EPOCH":"2026-02-27T14:47:44.378304","MEAN_MOTION":14.52027279,"ECCENTRICITY":0.00227949,"INCLINATION":86.3541,"RA_OF_ASC_NODE":9.8892,"ARG_OF_PERICENTER":300.6162,"MEAN_ANOMALY":59.2795,"EPHEMERIS_TYPE":0,"CLASSIFICATION_TYPE":"U","NORAD_CAT_ID":37548,"ELEMENT_SET_NO":999,"REV_AT_EPOCH":66647,"BSTAR":0.0010559446,"MEAN_MOTION_DOT":4.301e-5,"MEAN_MOTION_DDOT":0}]
